*******************************************************************************
Ephemeris / WWW_USER Mon Mar 10 07:13:42 2025 Pasadena, USA      / Horizons    
*******************************************************************************
Target body name: (2018 OG)                       {source: JPL#12}
Center body name: Earth (399)                     {source: DE441}
Center-site name: Mauna Kea
*******************************************************************************
Start time      : A.D. 2018-Oct-22 04:03:00.0000 UT      
Stop  time      : A.D. 2018-Oct-22 16:09:00.0000 UT      
Step-size       : 1 minutes
*******************************************************************************
Target pole/equ : undefined
Target radii    : undefined                                                    
Center geodetic : 204.5278, 19.8260847, 4.21024   {E-lon(deg),Lat(deg),Alt(km)}
Center cylindric: 204.5278, 6006.35451, 2151.0229 {E-lon(deg),Dxy(km),Dz(km)}
Center pole/equ : ITRF93                          {East-longitude positive}
Center radii    : 6378.137, 6378.137, 6356.752 km {Equator_a, b, pole_c}       
Target primary  : Sun
Vis. interferer : MOON (R_eq= 1737.400) km        {source: DE441}
Rel. light bend : Sun                             {source: DE441}
Rel. lght bnd GM: 1.3271E+11 km^3/s^2                                          
Small-body perts: Yes                             {source: SB441-N16}
Atmos refraction: NO (AIRLESS)
RA format       : HMS
Time format     : CAL 
Calendar mode   : Mixed Julian/Gregorian
RTS-only print  : NO       
EOP file        : eop.250307.p250603                                           
EOP coverage    : DATA-BASED 1962-JAN-20 TO 2025-MAR-07. PREDICTS-> 2025-JUN-02
Units conversion: 1 au= 149597870.700 km, c= 299792.458 km/s, 1 day= 86400.0 s 
Table cut-offs 1: Elevation (-90.0deg=NO ),Airmass (>38.000=NO), Daylight (YES)
Table cut-offs 2: Solar elongation (  0.0,180.0=NO ),Local Hour Angle( 0.0=NO )
Table cut-offs 3: RA/DEC angular rate (     0.0=NO )                           
*******************************************************************************
Initial IAU76/J2000 heliocentric ecliptic osculating elements (au, days, deg.):
  EPOCH=  2458389.5 ! 2018-Sep-28.00 (TDB)         Residual RMS= .17662        
   EC= .5817218672922059   QR= .9873203561553971   TP= 2458366.942240702       
   OM= 131.0345430575832   W=  220.7633135105564   IN= 9.123860581277821       
  Equivalent ICRF heliocentric cartesian coordinates (au, au/d):
   X= 9.625437195102586E-01  Y= 3.686106454146055E-01  Z=-5.877845729655690E-03
  VX=-3.555418036941177E-03 VY= 1.979451357965206E-02 VZ= 6.659913004156397E-03
Asteroid physical parameters (km, seconds, rotational period in hours):        
   GM= n.a.                RAD= n.a.               ROTPER= n.a.                
   H= 23.6                 G= .150                 B-V= n.a.                   
                           ALBEDO= n.a.            STYP= n.a.                  
*******************************************************************************
 Date__(UT)__HR:MN     R.A._________(ICRF)_________DEC
******************************************************
$$SOE
 2018-Oct-22 06:06  m  06 39 00.556250 -05 29 52.44239
 2018-Oct-22 06:07  m  06 39 00.551689 -05 29 52.24541
 2018-Oct-22 06:08  m  06 39 00.547106 -05 29 52.04845
 2018-Oct-22 06:09  m  06 39 00.542501 -05 29 51.85151
 2018-Oct-22 06:10  m  06 39 00.537874 -05 29 51.65459
 2018-Oct-22 06:11  m  06 39 00.533225 -05 29 51.45770
 2018-Oct-22 06:12  m  06 39 00.528553 -05 29 51.26083
 2018-Oct-22 06:13  m  06 39 00.523860 -05 29 51.06398
 2018-Oct-22 06:14  m  06 39 00.519143 -05 29 50.86716
 2018-Oct-22 06:15  m  06 39 00.514404 -05 29 50.67036
 2018-Oct-22 06:16  m  06 39 00.509643 -05 29 50.47358
 2018-Oct-22 06:17  m  06 39 00.504859 -05 29 50.27682
 2018-Oct-22 06:18  m  06 39 00.500052 -05 29 50.08008
 2018-Oct-22 06:19  m  06 39 00.495222 -05 29 49.88337
 2018-Oct-22 06:20  m  06 39 00.490369 -05 29 49.68668
 2018-Oct-22 06:21  m  06 39 00.485493 -05 29 49.49001
 2018-Oct-22 06:22  m  06 39 00.480594 -05 29 49.29336
 2018-Oct-22 06:23  m  06 39 00.475672 -05 29 49.09673
 2018-Oct-22 06:24  m  06 39 00.470727 -05 29 48.90013
 2018-Oct-22 06:25  m  06 39 00.465759 -05 29 48.70354
 2018-Oct-22 06:26  m  06 39 00.460767 -05 29 48.50698
 2018-Oct-22 06:27  m  06 39 00.455751 -05 29 48.31044
 2018-Oct-22 06:28  m  06 39 00.450712 -05 29 48.11391
 2018-Oct-22 06:29  m  06 39 00.445650 -05 29 47.91741
 2018-Oct-22 06:30  m  06 39 00.440564 -05 29 47.72093
 2018-Oct-22 06:31  m  06 39 00.435454 -05 29 47.52447
 2018-Oct-22 06:32  m  06 39 00.430320 -05 29 47.32803
 2018-Oct-22 06:33  m  06 39 00.425162 -05 29 47.13161
 2018-Oct-22 06:34  m  06 39 00.419980 -05 29 46.93521
 2018-Oct-22 06:35  m  06 39 00.414775 -05 29 46.73883
 2018-Oct-22 06:36  m  06 39 00.409545 -05 29 46.54247
 2018-Oct-22 06:37  m  06 39 00.404291 -05 29 46.34612
 2018-Oct-22 06:38  m  06 39 00.399012 -05 29 46.14980
 2018-Oct-22 06:39  m  06 39 00.393710 -05 29 45.95350
 2018-Oct-22 06:40  m  06 39 00.388383 -05 29 45.75721
 2018-Oct-22 06:41  m  06 39 00.383031 -05 29 45.56095
 2018-Oct-22 06:42  m  06 39 00.377655 -05 29 45.36470
 2018-Oct-22 06:43  m  06 39 00.372254 -05 29 45.16847
 2018-Oct-22 06:44  m  06 39 00.366829 -05 29 44.97226
 2018-Oct-22 06:45  m  06 39 00.361379 -05 29 44.77607
 2018-Oct-22 06:46  m  06 39 00.355904 -05 29 44.57990
 2018-Oct-22 06:47  m  06 39 00.350404 -05 29 44.38374
 2018-Oct-22 06:48  m  06 39 00.344880 -05 29 44.18761
 2018-Oct-22 06:49  m  06 39 00.339330 -05 29 43.99149
 2018-Oct-22 06:50  m  06 39 00.333755 -05 29 43.79539
 2018-Oct-22 06:51  m  06 39 00.328155 -05 29 43.59930
 2018-Oct-22 06:52  m  06 39 00.322530 -05 29 43.40324
 2018-Oct-22 06:53  m  06 39 00.316880 -05 29 43.20719
 2018-Oct-22 06:54  m  06 39 00.311204 -05 29 43.01115
 2018-Oct-22 06:55  m  06 39 00.305503 -05 29 42.81514
 2018-Oct-22 06:56  m  06 39 00.299776 -05 29 42.61914
 2018-Oct-22 06:57  m  06 39 00.294024 -05 29 42.42316
 2018-Oct-22 06:58  m  06 39 00.288246 -05 29 42.22719
 2018-Oct-22 06:59  m  06 39 00.282443 -05 29 42.03124
 2018-Oct-22 07:00  m  06 39 00.276614 -05 29 41.83531
 2018-Oct-22 07:01  m  06 39 00.270759 -05 29 41.63939
 2018-Oct-22 07:02  m  06 39 00.264879 -05 29 41.44349
 2018-Oct-22 07:03  m  06 39 00.258972 -05 29 41.24760
 2018-Oct-22 07:04  m  06 39 00.253040 -05 29 41.05173
 2018-Oct-22 07:05  m  06 39 00.247081 -05 29 40.85587
 2018-Oct-22 07:06  m  06 39 00.241097 -05 29 40.66003
 2018-Oct-22 07:07  m  06 39 00.235086 -05 29 40.46421
 2018-Oct-22 07:08  m  06 39 00.229050 -05 29 40.26840
 2018-Oct-22 07:09  m  06 39 00.222987 -05 29 40.07260
 2018-Oct-22 07:10  m  06 39 00.216897 -05 29 39.87682
 2018-Oct-22 07:11  m  06 39 00.210782 -05 29 39.68106
 2018-Oct-22 07:12  m  06 39 00.204640 -05 29 39.48530
 2018-Oct-22 07:13  m  06 39 00.198471 -05 29 39.28957
 2018-Oct-22 07:14  m  06 39 00.192277 -05 29 39.09384
 2018-Oct-22 07:15  m  06 39 00.186055 -05 29 38.89813
 2018-Oct-22 07:16  m  06 39 00.179807 -05 29 38.70244
 2018-Oct-22 07:17  m  06 39 00.173532 -05 29 38.50675
 2018-Oct-22 07:18  m  06 39 00.167231 -05 29 38.31108
 2018-Oct-22 07:19  m  06 39 00.160903 -05 29 38.11543
 2018-Oct-22 07:20  m  06 39 00.154548 -05 29 37.91979
 2018-Oct-22 07:21  m  06 39 00.148166 -05 29 37.72415
 2018-Oct-22 07:22  m  06 39 00.141757 -05 29 37.52854
 2018-Oct-22 07:23  m  06 39 00.135321 -05 29 37.33293
 2018-Oct-22 07:24  m  06 39 00.128858 -05 29 37.13734
 2018-Oct-22 07:25  m  06 39 00.122368 -05 29 36.94176
 2018-Oct-22 07:26  m  06 39 00.115851 -05 29 36.74619
 2018-Oct-22 07:27  m  06 39 00.109307 -05 29 36.55064
 2018-Oct-22 07:28  m  06 39 00.102736 -05 29 36.35509
 2018-Oct-22 07:29  m  06 39 00.096137 -05 29 36.15956
 2018-Oct-22 07:30  m  06 39 00.089511 -05 29 35.96404
 2018-Oct-22 07:31  m  06 39 00.082858 -05 29 35.76853
 2018-Oct-22 07:32  m  06 39 00.076177 -05 29 35.57303
 2018-Oct-22 07:33  m  06 39 00.069469 -05 29 35.37754
 2018-Oct-22 07:34  m  06 39 00.062734 -05 29 35.18206
 2018-Oct-22 07:35  m  06 39 00.055971 -05 29 34.98660
 2018-Oct-22 07:36  m  06 39 00.049180 -05 29 34.79114
 2018-Oct-22 07:37  m  06 39 00.042362 -05 29 34.59570
 2018-Oct-22 07:38  m  06 39 00.035516 -05 29 34.40026
 2018-Oct-22 07:39  m  06 39 00.028642 -05 29 34.20483
 2018-Oct-22 07:40  m  06 39 00.021741 -05 29 34.00942
 2018-Oct-22 07:41  m  06 39 00.014811 -05 29 33.81401
 2018-Oct-22 07:42  m  06 39 00.007854 -05 29 33.61862
 2018-Oct-22 07:43  m  06 39 00.000870 -05 29 33.42323
 2018-Oct-22 07:44  m  06 38 59.993857 -05 29 33.22785
 2018-Oct-22 07:45  m  06 38 59.986816 -05 29 33.03248
 2018-Oct-22 07:46  m  06 38 59.979748 -05 29 32.83712
 2018-Oct-22 07:47  m  06 38 59.972651 -05 29 32.64177
 2018-Oct-22 07:48  m  06 38 59.965526 -05 29 32.44643
 2018-Oct-22 07:49  m  06 38 59.958373 -05 29 32.25109
 2018-Oct-22 07:50  m  06 38 59.951192 -05 29 32.05577
 2018-Oct-22 07:51  m  06 38 59.943983 -05 29 31.86045
 2018-Oct-22 07:52  m  06 38 59.936746 -05 29 31.66514
 2018-Oct-22 07:53  m  06 38 59.929480 -05 29 31.46984
 2018-Oct-22 07:54  m  06 38 59.922187 -05 29 31.27454
 2018-Oct-22 07:55  m  06 38 59.914865 -05 29 31.07926
 2018-Oct-22 07:56  m  06 38 59.907514 -05 29 30.88398
 2018-Oct-22 07:57  m  06 38 59.900135 -05 29 30.68870
 2018-Oct-22 07:58  m  06 38 59.892728 -05 29 30.49344
 2018-Oct-22 07:59  m  06 38 59.885293 -05 29 30.29818
 2018-Oct-22 08:00  m  06 38 59.877828 -05 29 30.10292
 2018-Oct-22 08:01  m  06 38 59.870336 -05 29 29.90768
 2018-Oct-22 08:02  m  06 38 59.862815 -05 29 29.71243
 2018-Oct-22 08:03  m  06 38 59.855265 -05 29 29.51720
 2018-Oct-22 08:04  m  06 38 59.847687 -05 29 29.32197
 2018-Oct-22 08:05  m  06 38 59.840080 -05 29 29.12675
 2018-Oct-22 08:06  m  06 38 59.832445 -05 29 28.93153
 2018-Oct-22 08:07  m  06 38 59.824780 -05 29 28.73632
 2018-Oct-22 08:08  m  06 38 59.817087 -05 29 28.54111
